STARLINK-36067          
1 66965U 25288G   25364.25002315 -.02043917  00000+0 -38869-1 0  9997
2 66965  43.0007  61.3944 0001117 262.1090 355.6598 15.50748640  4640
STARLINK-36139          
1 66966U 25288H   25364.25002315 -.00013471  00000+0 -22434-3 0  9991
2 66966  43.0007  61.3903 0001010 259.1678   0.5504 15.50561004  4646
STARLINK-36136          
1 66967U 25288J   25364.25002315 -.00039055  00000+0 -66336-3 0  9997
2 66967  43.0007  61.3853 0000993 257.5246   4.1077 15.50573889  4642
STARLINK-36152          
1 66968U 25288K   25364.25002315 -.00021838  00000+0 -36762-3 0  9998
2 66968  43.0008  61.3802 0001553 282.0600 341.4908 15.50565564  4649
STARLINK-36149          
1 66969U 25288L   25364.25002315 -.02063339  00000+0 -47014-1 0  9993
2 66969  43.0005  61.3797 0001107 264.5971 358.8541 15.45664903  4647
STARLINK-35703          
1 66970U 25288M   25364.25002315 -.00033275  00000+0 -56395-3 0  9993
2 66970  43.0006  61.3364 0000997 261.1901  19.6129 15.50571402  4643
STARLINK-35678          
1 66971U 25288N   25364.25002315 -.00025675  00000+0 -43345-3 0  9990
2 66971  43.0005  61.3759 0001068 258.1299   7.3383 15.50566766  4640
STARLINK-34846          
1 66972U 25288P   25364.25002315 -.00036975  00000+0 -62757-3 0  9994
2 66972  43.0006  61.3712 0001118 256.6280  10.7544 15.50573040  4640
STARLINK-35778          
1 66973U 25288Q   25364.25002315 -.00104126  00000+0 -17906-2 0  9994
2 66973  43.0007  61.3661 0001225 259.4955   9.7857 15.50612940  4642
STARLINK-35780          
1 66974U 25288R   25364.25002315 -.00040092  00000+0 -68121-3 0  9992
2 66974  43.0008  61.3623 0001050 258.4760  12.7420 15.50574400  4649
STARLINK-35777          
1 66975U 25288S   25364.25002315  .00000166  00000+0  86635-5 0  9991
2 66975  43.0005  61.3514 0001572 279.4959 355.5575 15.50555593  4649
STARLINK-35772          
1 66976U 25288T   25364.26628131  .00096204  00000+0  22774-2 0  9992
2 66976  43.0005  63.0422 0001181 257.9512 102.1212 15.40752661  4580
