CCSDS_OMM_VERS = 2.0
CREATION_DATE  = 
ORIGINATOR     = 

OBJECT_NAME    = STARLINK-36067
OBJECT_ID      = 2025-288G
CENTER_NAME    = EARTH
REF_FRAME      = TEME
TIME_SYSTEM    = UTC
MEAN_ELEMENT_THEORY = SGP/SGP4

EPOCH          = 2025-12-30T06:00:02.000160
MEAN_MOTION    = 15.50748640
ECCENTRICITY   = .00011171
INCLINATION    = 43.0007
RA_OF_ASC_NODE = 61.3944
ARG_OF_PERICENTER = 262.1090
MEAN_ANOMALY   = 355.6598

EPHEMERIS_TYPE = 0
CLASSIFICATION_TYPE = U
NORAD_CAT_ID   = 66965
ELEMENT_SET_NO = 999
REV_AT_EPOCH   = 464
BSTAR          = -.38868556E-1
MEAN_MOTION_DOT = -.2043917E-1
MEAN_MOTION_DDOT = 0

CCSDS_OMM_VERS = 2.0
CREATION_DATE  = 
ORIGINATOR     = 

OBJECT_NAME    = STARLINK-36139
OBJECT_ID      = 2025-288H
CENTER_NAME    = EARTH
REF_FRAME      = TEME
TIME_SYSTEM    = UTC
MEAN_ELEMENT_THEORY = SGP/SGP4

EPOCH          = 2025-12-30T06:00:02.000160
MEAN_MOTION    = 15.50561004
ECCENTRICITY   = .00010106
INCLINATION    = 43.0007
RA_OF_ASC_NODE = 61.3903
ARG_OF_PERICENTER = 259.1678
MEAN_ANOMALY   = 0.5504

EPHEMERIS_TYPE = 0
CLASSIFICATION_TYPE = U
NORAD_CAT_ID   = 66966
ELEMENT_SET_NO = 999
REV_AT_EPOCH   = 464
BSTAR          = -.22434068E-3
MEAN_MOTION_DOT = -.13471E-3
MEAN_MOTION_DDOT = 0

CCSDS_OMM_VERS = 2.0
CREATION_DATE  = 
ORIGINATOR     = 

OBJECT_NAME    = STARLINK-36136
OBJECT_ID      = 2025-288J
CENTER_NAME    = EARTH
REF_FRAME      = TEME
TIME_SYSTEM    = UTC
MEAN_ELEMENT_THEORY = SGP/SGP4

EPOCH          = 2025-12-30T06:00:02.000160
MEAN_MOTION    = 15.50573889
ECCENTRICITY   = .00009932
INCLINATION    = 43.0007
RA_OF_ASC_NODE = 61.3853
ARG_OF_PERICENTER = 257.5246
MEAN_ANOMALY   = 4.1077

EPHEMERIS_TYPE = 0
CLASSIFICATION_TYPE = U
NORAD_CAT_ID   = 66967
ELEMENT_SET_NO = 999
REV_AT_EPOCH   = 464
BSTAR          = -.6633592E-3
MEAN_MOTION_DOT = -.39055E-3
MEAN_MOTION_DDOT = 0

CCSDS_OMM_VERS = 2.0
CREATION_DATE  = 
ORIGINATOR     = 

OBJECT_NAME    = STARLINK-36152
OBJECT_ID      = 2025-288K
CENTER_NAME    = EARTH
REF_FRAME      = TEME
TIME_SYSTEM    = UTC
MEAN_ELEMENT_THEORY = SGP/SGP4

EPOCH          = 2025-12-30T06:00:02.000160
MEAN_MOTION    = 15.50565564
ECCENTRICITY   = .00015537
INCLINATION    = 43.0008
RA_OF_ASC_NODE = 61.3802
ARG_OF_PERICENTER = 282.0600
MEAN_ANOMALY   = 341.4908

EPHEMERIS_TYPE = 0
CLASSIFICATION_TYPE = U
NORAD_CAT_ID   = 66968
ELEMENT_SET_NO = 999
REV_AT_EPOCH   = 464
BSTAR          = -.36761872E-3
MEAN_MOTION_DOT = -.21838E-3
MEAN_MOTION_DDOT = 0

CCSDS_OMM_VERS = 2.0
CREATION_DATE  = 
ORIGINATOR     = 

OBJECT_NAME    = STARLINK-36149
OBJECT_ID      = 2025-288L
CENTER_NAME    = EARTH
REF_FRAME      = TEME
TIME_SYSTEM    = UTC
MEAN_ELEMENT_THEORY = SGP/SGP4

EPOCH          = 2025-12-30T06:00:02.000160
MEAN_MOTION    = 15.45664903
ECCENTRICITY   = .00011071
INCLINATION    = 43.0005
RA_OF_ASC_NODE = 61.3797
ARG_OF_PERICENTER = 264.5971
MEAN_ANOMALY   = 358.8541

EPHEMERIS_TYPE = 0
CLASSIFICATION_TYPE = U
NORAD_CAT_ID   = 66969
ELEMENT_SET_NO = 999
REV_AT_EPOCH   = 464
BSTAR          = -.47014173E-1
MEAN_MOTION_DOT = -.2063339E-1
MEAN_MOTION_DDOT = 0

CCSDS_OMM_VERS = 2.0
CREATION_DATE  = 
ORIGINATOR     = 

OBJECT_NAME    = STARLINK-35703
OBJECT_ID      = 2025-288M
CENTER_NAME    = EARTH
REF_FRAME      = TEME
TIME_SYSTEM    = UTC
MEAN_ELEMENT_THEORY = SGP/SGP4

EPOCH          = 2025-12-30T06:00:02.000160
MEAN_MOTION    = 15.50571402
ECCENTRICITY   = .00009977
INCLINATION    = 43.0006
RA_OF_ASC_NODE = 61.3364
ARG_OF_PERICENTER = 261.1901
MEAN_ANOMALY   = 19.6129

EPHEMERIS_TYPE = 0
CLASSIFICATION_TYPE = U
NORAD_CAT_ID   = 66970
ELEMENT_SET_NO = 999
REV_AT_EPOCH   = 464
BSTAR          = -.56394932E-3
MEAN_MOTION_DOT = -.33275E-3
MEAN_MOTION_DDOT = 0

CCSDS_OMM_VERS = 2.0
CREATION_DATE  = 
ORIGINATOR     = 

OBJECT_NAME    = STARLINK-35678
OBJECT_ID      = 2025-288N
CENTER_NAME    = EARTH
REF_FRAME      = TEME
TIME_SYSTEM    = UTC
MEAN_ELEMENT_THEORY = SGP/SGP4

EPOCH          = 2025-12-30T06:00:02.000160
MEAN_MOTION    = 15.50566766
ECCENTRICITY   = .00010681
INCLINATION    = 43.0005
RA_OF_ASC_NODE = 61.3759
ARG_OF_PERICENTER = 258.1299
MEAN_ANOMALY   = 7.3383

EPHEMERIS_TYPE = 0
CLASSIFICATION_TYPE = U
NORAD_CAT_ID   = 66971
ELEMENT_SET_NO = 999
REV_AT_EPOCH   = 464
BSTAR          = -.43345023E-3
MEAN_MOTION_DOT = -.25675E-3
MEAN_MOTION_DDOT = 0

CCSDS_OMM_VERS = 2.0
CREATION_DATE  = 
ORIGINATOR     = 

OBJECT_NAME    = STARLINK-34846
OBJECT_ID      = 2025-288P
CENTER_NAME    = EARTH
REF_FRAME      = TEME
TIME_SYSTEM    = UTC
MEAN_ELEMENT_THEORY = SGP/SGP4

EPOCH          = 2025-12-30T06:00:02.000160
MEAN_MOTION    = 15.50573040
ECCENTRICITY   = .00011186
INCLINATION    = 43.0006
RA_OF_ASC_NODE = 61.3712
ARG_OF_PERICENTER = 256.6280
MEAN_ANOMALY   = 10.7544

EPHEMERIS_TYPE = 0
CLASSIFICATION_TYPE = U
NORAD_CAT_ID   = 66972
ELEMENT_SET_NO = 999
REV_AT_EPOCH   = 464
BSTAR          = -.62756832E-3
MEAN_MOTION_DOT = -.36975E-3
MEAN_MOTION_DDOT = 0

CCSDS_OMM_VERS = 2.0
CREATION_DATE  = 
ORIGINATOR     = 

OBJECT_NAME    = STARLINK-35778
OBJECT_ID      = 2025-288Q
CENTER_NAME    = EARTH
REF_FRAME      = TEME
TIME_SYSTEM    = UTC
MEAN_ELEMENT_THEORY = SGP/SGP4

EPOCH          = 2025-12-30T06:00:02.000160
MEAN_MOTION    = 15.50612940
ECCENTRICITY   = .00012259
INCLINATION    = 43.0007
RA_OF_ASC_NODE = 61.3661
ARG_OF_PERICENTER = 259.4955
MEAN_ANOMALY   = 9.7857

EPHEMERIS_TYPE = 0
CLASSIFICATION_TYPE = U
NORAD_CAT_ID   = 66973
ELEMENT_SET_NO = 999
REV_AT_EPOCH   = 464
BSTAR          = -.17906046E-2
MEAN_MOTION_DOT = -.104126E-2
MEAN_MOTION_DDOT = 0

CCSDS_OMM_VERS = 2.0
CREATION_DATE  = 
ORIGINATOR     = 

OBJECT_NAME    = STARLINK-35780
OBJECT_ID      = 2025-288R
CENTER_NAME    = EARTH
REF_FRAME      = TEME
TIME_SYSTEM    = UTC
MEAN_ELEMENT_THEORY = SGP/SGP4

EPOCH          = 2025-12-30T06:00:02.000160
MEAN_MOTION    = 15.50574400
ECCENTRICITY   = .00010504
INCLINATION    = 43.0008
RA_OF_ASC_NODE = 61.3623
ARG_OF_PERICENTER = 258.4760
MEAN_ANOMALY   = 12.7420

EPHEMERIS_TYPE = 0
CLASSIFICATION_TYPE = U
NORAD_CAT_ID   = 66974
ELEMENT_SET_NO = 999
REV_AT_EPOCH   = 464
BSTAR          = -.6812074E-3
MEAN_MOTION_DOT = -.40092E-3
MEAN_MOTION_DDOT = 0

CCSDS_OMM_VERS = 2.0
CREATION_DATE  = 
ORIGINATOR     = 

OBJECT_NAME    = STARLINK-35777
OBJECT_ID      = 2025-288S
CENTER_NAME    = EARTH
REF_FRAME      = TEME
TIME_SYSTEM    = UTC
MEAN_ELEMENT_THEORY = SGP/SGP4

EPOCH          = 2025-12-30T06:00:02.000160
MEAN_MOTION    = 15.50555593
ECCENTRICITY   = .00015729
INCLINATION    = 43.0005
RA_OF_ASC_NODE = 61.3514
ARG_OF_PERICENTER = 279.4959
MEAN_ANOMALY   = 355.5575

EPHEMERIS_TYPE = 0
CLASSIFICATION_TYPE = U
NORAD_CAT_ID   = 66975
ELEMENT_SET_NO = 999
REV_AT_EPOCH   = 464
BSTAR          = .8663538E-5
MEAN_MOTION_DOT = .166E-5
MEAN_MOTION_DDOT = 0

CCSDS_OMM_VERS = 2.0
CREATION_DATE  = 
ORIGINATOR     = 

OBJECT_NAME    = STARLINK-35772
OBJECT_ID      = 2025-288T
CENTER_NAME    = EARTH
REF_FRAME      = TEME
TIME_SYSTEM    = UTC
MEAN_ELEMENT_THEORY = SGP/SGP4

EPOCH          = 2025-12-30T06:23:26.705184
MEAN_MOTION    = 15.40752661
ECCENTRICITY   = .00011814
INCLINATION    = 43.0005
RA_OF_ASC_NODE = 63.0422
ARG_OF_PERICENTER = 257.9512
MEAN_ANOMALY   = 102.1212

EPHEMERIS_TYPE = 0
CLASSIFICATION_TYPE = U
NORAD_CAT_ID   = 66976
ELEMENT_SET_NO = 999
REV_AT_EPOCH   = 458
BSTAR          = .22773772E-2
MEAN_MOTION_DOT = .96204E-3
MEAN_MOTION_DDOT = 0

